ATLAS CENTAUR 2         
1 00694U 63047A   25344.67331823  .00004629  00000+0  55892-3 0  9992
2 00694  30.3556 333.0006 0548968  15.9670 345.7518 14.11741999119039
THOR AGENA D R/B        
1 00733U 64002A   25344.48953374  .00000384  00000+0  15404-3 0  9997
2 00733  99.1218 347.9866 0033260 156.6761 203.5939 14.33957448225518
SL-3 R/B                
1 00877U 64053B   25344.04017083  .00000540  00000+0  12945-3 0  9993
2 00877  65.0768 234.0465 0073639 321.2453  38.3377 14.61272073253697
SL-8 R/B                
1 02802U 67045B   25344.50892856  .00000682  00000+0  19628-3 0  9999
2 02802  74.0096 154.6284 0064378 184.5387 175.5196 14.45533156 76132
SL-8 R/B                
1 03230U 68040B   25344.70944088  .00006051  00000+0  45525-3 0  9999
2 03230  74.0304 135.4029 0025343 337.2778  22.7285 15.02502023 76645
OAO 2                   
1 03597U 68110A   25344.58017721  .00000515  00000+0  14412-3 0  9994
2 03597  34.9944  42.7152 0005744 208.2248 151.8132 14.47242388  6185
ISIS 1                  
1 03669U 69009A   25344.49298528  .00000322  00000+0  23424-3 0  9997
2 03669  88.4485 165.0422 1706855 269.2387  71.3702 11.30352973338459
SERT 2                  
1 04327U 70009A   25344.62184191  .00000068  00000+0  14948-3 0  9994
2 04327  99.2646 287.6406 0005474  39.2495 139.1663 13.58717199767795
SL-3 R/B                
1 05118U 71028B   25344.74432240  .00040652  00000+0  61516-3 0  9995
2 05118  81.2375 161.2884 0019338 247.7301 112.1898 15.54272093974829
ASTEX 1                 
1 05560U 71089A   25344.63559081  .00000920  00000+0  23431-3 0  9992
2 05560  92.7136 122.9382 0016672  32.5388 327.6842 14.50638651849398
SL-8 R/B                
1 05730U 71119B   25344.73589926  .00018794  00000+0  97906-3 0  9993
2 05730  73.8891 341.7268 0559570 326.3954  30.2835 14.35655347642711
OAO 3 (COPERNICUS)      
1 06153U 72065A   25344.71139740  .00000714  00000+0  15111-3 0  9998
2 06153  35.0058  84.2200 0006255 157.4074 356.7649 14.59903829833183
